{
  "type": "FeatureCollection",
  "features": [
    {
      "type": "Feature",
      "properties": {
        "norad_id": 30103,
        "name": "FENGYUN 1C DEB",
        "group": "fengyun-1c-debris",
        "lat": -32.39446768697933,
        "lon": -25.71865671662722,
        "alt_km": 855.729923048305,
        "timestamp": "2025-12-12T20:43:07.308906+00:00",
        "meta_object_name": "FENGYUN 1C DEB",
        "meta_object_id": "1999-025RG",
        "meta_epoch": "2025-12-11T21:35:08.941056",
        "meta_mean_motion": 14.2485539,
        "meta_eccentricity": 0.0064119,
        "meta_inclination": 99.245,
        "meta_ra_of_asc_node": 327.3353,
        "meta_arg_of_pericenter": 122.2328,
        "meta_mean_anomaly": 303.9369,
        "meta_ephemeris_type": 0,
        "meta_classification_type": "U",
        "meta_norad_cat_id": 30103,
        "meta_element_set_no": 999,
        "meta_rev_at_epoch": 97907,
        "meta_bstar": 0.00065485,
        "meta_mean_motion_dot": 1.514e-05,
        "meta_mean_motion_ddot": 0,
        "tle_line1": "1 30103U 99025RG  25345.89940904  .00001514  00000+0  65485-3 0  9995",
        "tle_line2": "2 30103  99.2450 327.3353 0064119 122.2328 303.9369 14.24855390979071"
      },
      "geometry": {
        "type": "Point",
        "coordinates": [
          -25.71865671662722,
          -32.39446768697933
        ]
      }
    },
    {
      "type": "Feature",
      "properties": {
        "norad_id": 30104,
        "name": "FENGYUN 1C DEB",
        "group": "fengyun-1c-debris",
        "lat": 4.319527892961918,
        "lon": 4.559978411192197,
        "alt_km": 788.1011066584915,
        "timestamp": "2025-12-12T20:43:07.308917+00:00",
        "meta_object_name": "FENGYUN 1C DEB",
        "meta_object_id": "1999-025RH",
        "meta_epoch": "2025-12-12T07:15:06.407136",
        "meta_mean_motion": 14.25664577,
        "meta_eccentricity": 0.0073987,
        "meta_inclination": 98.3595,
        "meta_ra_of_asc_node": 183.3885,
        "meta_arg_of_pericenter": 109.4539,
        "meta_mean_anomaly": 67.0293,
        "meta_ephemeris_type": 0,
        "meta_classification_type": "U",
        "meta_norad_cat_id": 30104,
        "meta_element_set_no": 999,
        "meta_rev_at_epoch": 97886,
        "meta_bstar": 0.0010615866,
        "meta_mean_motion_dot": 2.55e-05,
        "meta_mean_motion_ddot": 0,
        "tle_line1": "1 30104U 99025RH  25346.30215749  .00002550  00000+0  10616-2 0  9991",
        "tle_line2": "2 30104  98.3595 183.3885 0073987 109.4539  67.0293 14.25664577978862"
      },
      "geometry": {
        "type": "Point",
        "coordinates": [
          4.559978411192197,
          4.319527892961918
        ]
      }
    },
    {
      "type": "Feature",
      "properties": {
        "norad_id": 30105,
        "name": "FENGYUN 1C DEB",
        "group": "fengyun-1c-debris",
        "lat": -76.40213505809979,
        "lon": 11.600690024522695,
        "alt_km": 955.497442137801,
        "timestamp": "2025-12-12T20:43:07.308927+00:00",
        "meta_object_name": "FENGYUN 1C DEB",
        "meta_object_id": "1999-025RJ",
        "meta_epoch": "2025-12-11T21:26:42.820224",
        "meta_mean_motion": 14.21396336,
        "meta_eccentricity": 0.0199797,
        "meta_inclination": 98.5939,
        "meta_ra_of_asc_node": 331.9604,
        "meta_arg_of_pericenter": 76.3955,
        "meta_mean_anomaly": 285.9388,
        "meta_ephemeris_type": 0,
        "meta_classification_type": "U",
        "meta_norad_cat_id": 30105,
        "meta_element_set_no": 999,
        "meta_rev_at_epoch": 97750,
        "meta_bstar": 0.0004876,
        "meta_mean_motion_dot": 1.26e-05,
        "meta_mean_motion_ddot": 0,
        "tle_line1": "1 30105U 99025RJ  25345.89355116  .00001260  00000+0  48760-3 0  9997",
        "tle_line2": "2 30105  98.5939 331.9604 0199797  76.3955 285.9388 14.21396336977506"
      },
      "geometry": {
        "type": "Point",
        "coordinates": [
          11.600690024522695,
          -76.40213505809979
        ]
      }
    },
    {
      "type": "Feature",
      "properties": {
        "norad_id": 30106,
        "name": "FENGYUN 1C DEB",
        "group": "fengyun-1c-debris",
        "lat": -64.86771068899733,
        "lon": -86.21341700955561,
        "alt_km": 623.6382375454732,
        "timestamp": "2025-12-12T20:43:07.308938+00:00",
        "meta_object_name": "FENGYUN 1C DEB",
        "meta_object_id": "1999-025RK",
        "meta_epoch": "2025-12-12T07:00:22.009824",
        "meta_mean_motion": 14.85106196,
        "meta_eccentricity": 0.00469518,
        "meta_inclination": 98.9226,
        "meta_ra_of_asc_node": 253.5811,
        "meta_arg_of_pericenter": 199.2395,
        "meta_mean_anomaly": 280.9206,
        "meta_ephemeris_type": 0,
        "meta_classification_type": "U",
        "meta_norad_cat_id": 30106,
        "meta_element_set_no": 999,
        "meta_rev_at_epoch": 98538,
        "meta_bstar": 0.006588889,
        "meta_mean_motion_dot": 0.0005785,
        "meta_mean_motion_ddot": 0,
        "tle_line1": "1 30106U 99025RK  25346.29192141  .00057850  00000+0  65889-2 0  9996",
        "tle_line2": "2 30106  98.9226 253.5811 0046951 199.2395 280.9206 14.85106196985387"
      },
      "geometry": {
        "type": "Point",
        "coordinates": [
          -86.21341700955561,
          -64.86771068899733
        ]
      }
    },
    {
      "type": "Feature",
      "properties": {
        "norad_id": 30107,
        "name": "FENGYUN 1C DEB",
        "group": "fengyun-1c-debris",
        "lat": -5.7723154590305175,
        "lon": -137.12082497988962,
        "alt_km": 846.071511461314,
        "timestamp": "2025-12-12T20:43:07.308948+00:00",
        "meta_object_name": "FENGYUN 1C DEB",
        "meta_object_id": "1999-025RL",
        "meta_epoch": "2025-12-11T14:58:04.761408",
        "meta_mean_motion": 14.1442134,
        "meta_eccentricity": 0.0126312,
        "meta_inclination": 98.8473,
        "meta_ra_of_asc_node": 42.5533,
        "meta_arg_of_pericenter": 278.8206,
        "meta_mean_anomaly": 79.8682,
        "meta_ephemeris_type": 0,
        "meta_classification_type": "U",
        "meta_norad_cat_id": 30107,
        "meta_element_set_no": 999,
        "meta_rev_at_epoch": 97545,
        "meta_bstar": 0.00017435205,
        "meta_mean_motion_dot": 3.15e-06,
        "meta_mean_motion_ddot": 0,
        "tle_line1": "1 30107U 99025RL  25345.62366622  .00000315  00000+0  17435-3 0  9999",
        "tle_line2": "2 30107  98.8473  42.5533 0126312 278.8206  79.8682 14.14421340975456"
      },
      "geometry": {
        "type": "Point",
        "coordinates": [
          -137.12082497988962,
          -5.7723154590305175
        ]
      }
    },
    {
      "type": "Feature",
      "properties": {
        "norad_id": 30108,
        "name": "FENGYUN 1C DEB",
        "group": "fengyun-1c-debris",
        "lat": 80.49290887366448,
        "lon": -141.7747154601152,
        "alt_km": 781.1193679397647,
        "timestamp": "2025-12-12T20:43:07.308959+00:00",
        "meta_object_name": "FENGYUN 1C DEB",
        "meta_object_id": "1999-025RM",
        "meta_epoch": "2025-12-11T22:23:53.932704",
        "meta_mean_motion": 14.17169762,
        "meta_eccentricity": 0.0197707,
        "meta_inclination": 98.6601,
        "meta_ra_of_asc_node": 331.8067,
        "meta_arg_of_pericenter": 24.4909,
        "meta_mean_anomaly": 5.1842,
        "meta_ephemeris_type": 0,
        "meta_classification_type": "U",
        "meta_norad_cat_id": 30108,
        "meta_element_set_no": 999,
        "meta_rev_at_epoch": 97587,
        "meta_bstar": 0.00057541,
        "meta_mean_motion_dot": 1.361e-05,
        "meta_mean_motion_ddot": 0,
        "tle_line1": "1 30108U 99025RM  25345.93326311  .00001361  00000+0  57541-3 0  9999",
        "tle_line2": "2 30108  98.6601 331.8067 0197707  24.4909   5.1842 14.17169762975871"
      },
      "geometry": {
        "type": "Point",
        "coordinates": [
          -141.7747154601152,
          80.49290887366448
        ]
      }
    },
    {
      "type": "Feature",
      "properties": {
        "norad_id": 30109,
        "name": "FENGYUN 1C DEB",
        "group": "fengyun-1c-debris",
        "lat": -21.760171289609534,
        "lon": 156.94397164464291,
        "alt_km": 734.0593832614086,
        "timestamp": "2025-12-12T20:43:07.308969+00:00",
        "meta_object_name": "FENGYUN 1C DEB",
        "meta_object_id": "1999-025RN",
        "meta_epoch": "2025-12-12T06:16:59.163168",
        "meta_mean_motion": 14.17548081,
        "meta_eccentricity": 0.01673092,
        "meta_inclination": 98.508,
        "meta_ra_of_asc_node": 339.7932,
        "meta_arg_of_pericenter": 233.7778,
        "meta_mean_anomaly": 141.3379,
        "meta_ephemeris_type": 0,
        "meta_classification_type": "U",
        "meta_norad_cat_id": 30109,
        "meta_element_set_no": 999,
        "meta_rev_at_epoch": 97545,
        "meta_bstar": 0.00055105131,
        "meta_mean_motion_dot": 1.241e-05,
        "meta_mean_motion_ddot": 0,
        "tle_line1": "1 30109U 99025RN  25346.26179587  .00001241  00000+0  55105-3 0  9999",
        "tle_line2": "2 30109  98.5080 339.7932 0167309 233.7778 141.3379 14.17548081975451"
      },
      "geometry": {
        "type": "Point",
        "coordinates": [
          156.94397164464291,
          -21.760171289609534
        ]
      }
    }
  ]
}